COMMENT,ORIGINATOR,NORAD_CAT_ID,OBJECT_NAME,OBJECT_TYPE,CLASSIFICATION_TYPE,INTLDES,EPOCH,EPOCH_MICROSECONDS,MEAN_MOTION,ECCENTRICITY,INCLINATION,RA_OF_ASC_NODE,ARG_OF_PERICENTER,MEAN_ANOMALY,EPHEMERIS_TYPE,ELEMENT_SET_NO,REV_AT_EPOCH,BSTAR,MEAN_MOTION_DOT,MEAN_MOTION_DDOT,FILE,TLE_LINE0,TLE_LINE1,TLE_LINE2,OBJECT_ID,OBJECT_NUMBER,SEMIMAJOR_AXIS,PERIOD,APOGEE,PERIGEE,DECAYED
"GENERATED VIA SPACETRACK.ORG API","18 SPCS","48894","SPACEBEE-107","PAYLOAD","U","21059R","2021-08-26 15:11:50","799840","15.12189311","0.0010563","97.5224","6.5367","49.0995","311.1148","0","999","934","0.00014125","0.00002376","0","3103480","0 SPACEBEE-107","1 48894U 21059R   21238.63322685  .00002376  00000-0  14125-3 0  9995","2 48894  97.5224   6.5367 0010563  49.0995 311.1148 15.12189311  9349","2021-059R","48894","6907.662","95.226","536.823","522.230","1"
"GENERATED VIA SPACETRACK.ORG API","18 SPCS","48894","SPACEBEE-107","PAYLOAD","U","21059R","2021-08-27 07:04:42","635424","15.1219248","0.0010506","97.5224","7.1885","47.0149","313.196","0","999","944","0.0001466","0.00002468","0","3103646","0 SPACEBEE-107","1 48894U 21059R   21239.29493791  .00002468  00000-0  14660-3 0  9991","2 48894  97.5224   7.1885 0010506  47.0149 313.1960 15.12192480  9443","2021-059R","48894","6907.652","95.226","536.774","522.260","1"
"GENERATED VIA SPACETRACK.ORG API","18 SPCS","48894","SPACEBEE-107","PAYLOAD","U","21059R","2021-08-27 07:04:42","635424","15.1219248","0.0010506","97.5224","7.1885","47.0149","313.196","0","999","944","0.0001466","0.00002468","0","3103885","0 SPACEBEE-107","1 48894U 21059R   21239.29493791  .00002468  00000-0  14660-3 0  9991","2 48894  97.5224   7.1885 0010506  47.0149 313.1960 15.12192480  9443","2021-059R","48894","6907.652","95.226","536.774","522.260","1"
"GENERATED VIA SPACETRACK.ORG API","18 SPCS","48894","SPACEBEE-107","PAYLOAD","U","21059R","2021-08-27 19:47:00","9888","15.12194566","0.0010461","97.5225","7.71","45.3583","314.8499","0","999","952","0.00014446","0.00002431","0","3104038","0 SPACEBEE-107","1 48894U 21059R   21239.82430567  .00002431  00000-0  14446-3 0  9994","2 48894  97.5225   7.7100 0010461  45.3583 314.8499 15.12194566  9524","2021-059R","48894","6907.646","95.226","536.737","522.285","1"
"GENERATED VIA SPACETRACK.ORG API","18 SPCS","48894","SPACEBEE-107","PAYLOAD","U","21059R","2021-08-28 08:29:17","274624","15.12203621","0.0010442","97.5229","8.2315","43.9546","316.2514","0","999","960","0.00026368","0.00004493","0","3104275","0 SPACEBEE-107","1 48894U 21059R   21240.35367216  .00004493  00000-0  26368-3 0  9990","2 48894  97.5229   8.2315 0010442  43.9546 316.2514 15.12203621  9600","2021-059R","48894","6907.618","95.225","536.696","522.270","1"
"GENERATED VIA SPACETRACK.ORG API","18 SPCS","48894","SPACEBEE-107","PAYLOAD","U","21059R","2021-08-28 08:29:17","274624","15.12203621","0.0010442","97.5229","8.2315","43.9546","316.2514","0","999","960","0.00026368","0.00004493","0","3104340","0 SPACEBEE-107","1 48894U 21059R   21240.35367216  .00004493  00000-0  26368-3 0  9990","2 48894  97.5229   8.2315 0010442  43.9546 316.2514 15.12203621  9600","2021-059R","48894","6907.618","95.225","536.696","522.270","1"
"GENERATED VIA SPACETRACK.ORG API","18 SPCS","48894","SPACEBEE-107","PAYLOAD","U","21059R","2021-08-29 08:18:34","178688","15.12212005","0.0010372","97.5227","9.2093","40.7668","319.4336","0","999","975","0.00029356","0.00005011","0","3105060","0 SPACEBEE-107","1 48894U 21059R   21241.34622892  .00005011  00000-0  29356-3 0  9991","2 48894  97.5227   9.2093 0010372  40.7668 319.4336 15.12212005  9753","2021-059R","48894","6907.593","95.225","536.622","522.293","1"
"GENERATED VIA SPACETRACK.ORG API","18 SPCS","48894","SPACEBEE-107","PAYLOAD","U","21059R","2021-08-29 14:39:42","588576","15.1221429","0.0010355","97.5227","9.47","39.9391","320.26","0","999","979","0.00029782","0.00005085","0","3105145","0 SPACEBEE-107","1 48894U 21059R   21241.61090959  .00005085  00000-0  29782-3 0  9998","2 48894  97.5227   9.4700 0010355  39.9391 320.2600 15.12214290  9790","2021-059R","48894","6907.586","95.225","536.604","522.298","1"
"GENERATED VIA SPACETRACK.ORG API","18 SPCS","48894","SPACEBEE-107","PAYLOAD","U","21059R","2021-08-29 21:00:51","44256","15.12214595","0.0010346","97.5225","9.7307","39.1589","321.0389","0","999","983","0.00027224","0.00004643","0","3105271","0 SPACEBEE-107","1 48894U 21059R   21241.87559079  .00004643  00000-0  27224-3 0  9997","2 48894  97.5225   9.7307 0010346  39.1589 321.0389 15.12214595  9831","2021-059R","48894","6907.585","95.225","536.596","522.303","1"
"GENERATED VIA SPACETRACK.ORG API","18 SPCS","48894","SPACEBEE-107","PAYLOAD","U","21059R","2021-08-30 08:07:50","701728","15.12217413","0.0010307","97.5225","10.1869","37.6226","322.5723","0","999","990","0.00026262","0.00004477","0","3105635","0 SPACEBEE-107","1 48894U 21059R   21242.33878127  .00004477  00000-0  26262-3 0  9993","2 48894  97.5225  10.1869 0010307  37.6226 322.5723 15.12217413  9906","2021-059R","48894","6907.576","95.224","536.561","522.322","1"
"GENERATED VIA SPACETRACK.ORG API","18 SPCS","48894","SPACEBEE-107","PAYLOAD","U","21059R","2021-08-30 19:14:50","316864","15.1222017","0.0010249","97.5224","10.6432","36.1206","324.0715","0","999","997","0.00025615","0.00004365","0","3105726","0 SPACEBEE-107","1 48894U 21059R   21242.80197126  .00004365  00000-0  25615-3 0  9995","2 48894  97.5224  10.6432 0010249  36.1206 324.0715 15.12220170  9972","2021-059R","48894","6907.568","95.224","536.512","522.353","1"
"GENERATED VIA SPACETRACK.ORG API","18 SPCS","48894","SPACEBEE-107","PAYLOAD","U","21059R","2021-08-30 20:50:07","623456","15.12215296","0.0010264","97.5224","10.7084","36.133","324.0592","0","999","998","0.00017963","0.00003041","0","3105811","0 SPACEBEE-107","1 48894U 21059R   21242.86814379  .00003041  00000-0  17963-3 0  9994","2 48894  97.5224  10.7084 0010264  36.1330 324.0592 15.12215296  9988","2021-059R","48894","6907.583","95.225","536.538","522.358","1"
"GENERATED VIA SPACETRACK.ORG API","18 SPCS","48894","SPACEBEE-107","PAYLOAD","U","21059R","2021-08-30 22:25:24","706272","15.12215694","0.0010258","97.5224","10.7735","35.7392","324.4524","0","999","999","0.00018282","0.00003096","0","3106057","0 SPACEBEE-107","1 48894U 21059R   21242.93431373  .00003096  00000-0  18282-3 0  9996","2 48894  97.5224  10.7735 0010258  35.7392 324.4524 15.12215694  9999","2021-059R","48894","6907.581","95.225","536.532","522.361","1"
"GENERATED VIA SPACETRACK.ORG API","18 SPCS","48894","SPACEBEE-107","PAYLOAD","U","21059R","2021-08-31 07:57:07","270560","15.12216475","0.0010209","97.5224","11.1646","34.3547","325.8342","0","999","1005","0.00016278","0.00002749","0","3106145","0 SPACEBEE-107","1 48894U 21059R   21243.33133415  .00002749  00000-0  16278-3 0  9994","2 48894  97.5224  11.1646 0010209  34.3547 325.8342 15.12216475 10058","2021-059R","48894","6907.579","95.224","536.496","522.392","1"
"GENERATED VIA SPACETRACK.ORG API","18 SPCS","48894","SPACEBEE-107","PAYLOAD","U","21059R","2021-08-31 07:57:07","270560","15.12216475","0.0010209","97.5224","11.1646","34.3547","325.8342","0","999","1005","0.00016278","0.00002749","0","3106313","0 SPACEBEE-107","1 48894U 21059R   21243.33133415  .00002749  00000-0  16278-3 0  9994","2 48894  97.5224  11.1646 0010209  34.3547 325.8342 15.12216475 10058","2021-059R","48894","6907.579","95.224","536.496","522.392","1"
"GENERATED VIA SPACETRACK.ORG API","18 SPCS","48894","SPACEBEE-107","PAYLOAD","U","21059R","2021-08-31 22:14:41","65152","15.12218147","0.0010159","97.5224","11.7512","32.4086","327.7766","0","999","1014","0.00014858","0.00002504","0","3106454","0 SPACEBEE-107","1 48894U 21059R   21243.92686418  .00002504  00000-0  14858-3 0  9996","2 48894  97.5224  11.7512 0010159  32.4086 327.7766 15.12218147 10146","2021-059R","48894","6907.574","95.224","536.456","522.422","1"
"GENERATED VIA SPACETRACK.ORG API","18 SPCS","48894","SPACEBEE-107","PAYLOAD","U","21059R","2021-09-01 12:32:14","716320","15.12221172","0.0010117","97.5226","12.3377","30.2906","329.8907","0","999","1023","0.00015734","0.00002656","0","3106942","0 SPACEBEE-107","1 48894U 21059R   21244.52239255  .00002656  00000-0  15734-3 0  9998","2 48894  97.5226  12.3377 0010117  30.2906 329.8907 15.12221172 10237","2021-059R","48894","6907.565","95.224","536.418","522.441","1"
"GENERATED VIA SPACETRACK.ORG API","18 SPCS","48894","SPACEBEE-107","PAYLOAD","U","21059R","2021-09-01 12:32:14","716320","15.12221172","0.0010117","97.5226","12.3377","30.2906","329.8907","0","999","1023","0.00015734","0.00002656","0","3107002","0 SPACEBEE-107","1 48894U 21059R   21244.52239255  .00002656  00000-0  15734-3 0  9998","2 48894  97.5226  12.3377 0010117  30.2906 329.8907 15.12221172 10237","2021-059R","48894","6907.565","95.224","536.418","522.441","1"
"GENERATED VIA SPACETRACK.ORG API","18 SPCS","48894","SPACEBEE-107","PAYLOAD","U","21059R","2021-09-01 20:28:40","26720","15.12223324","0.0010056","97.5226","12.6638","29.4204","330.7591","0","999","1028","0.00017016","0.00002878","0","3107096","0 SPACEBEE-107","1 48894U 21059R   21244.85324105  .00002878  00000-0  17016-3 0  9994","2 48894  97.5226  12.6638 0010056  29.4204 330.7591 15.12223324 10289","2021-059R","48894","6907.558","95.224","536.369","522.477","1"
"GENERATED VIA SPACETRACK.ORG API","18 SPCS","48894","SPACEBEE-107","PAYLOAD","U","21059R","2021-09-02 07:35:39","434496","15.12224219","0.001","97.5226","13.12","27.8574","332.319","0","999","1035","0.00015226","0.00002568","0","3107538","0 SPACEBEE-107","1 48894U 21059R   21245.31642864  .00002568  00000-0  15226-3 0  9998","2 48894  97.5226  13.1200 0010000  27.8574 332.3190 15.12224219 10356","2021-059R","48894","6907.555","95.224","536.328","522.513","1"
